NETSAT-3                
1 46505U 20068V   26073.52216866  .00027365  00000+0  70294-3 0  9997
2 46505  97.8676  72.7365 0004250 339.6728  20.4347 15.39270418301109
NETSAT-1                
1 46506U 20068W   26073.45270647  .00018207  00000+0  58736-3 0  9999
2 46506  97.8746  68.0482 0005053   4.4278 355.7006 15.32202829300788
NETSAT-2                
1 46507U 20068X   26073.41220068  .00028193  00000+0  66548-3 0  9993
2 46507  97.8653  73.8825 0003634   7.2530 352.8767 15.41838359301119
GREENCUBE (IO-117)      
1 53109U 22080E   26072.15662715 -.00000003  00000+0  00000+0 0  9992
2 53109  70.1608 331.6501 0009033 310.6857  49.3018  6.42583056 85890
SITRO-AIS 5 (KATYS)     
1 57176U 23091L   26073.59434951  .00017703  00000+0  66385-3 0  9997
2 57176  97.5176 136.7042 0013192  79.8268 280.4458 15.27221956149894
SITRO-AIS 6 (CHIRKIN)   
1 57192U 23091AC  26073.63689134  .00009718  00000+0  39711-3 0  9995
2 57192  97.5181 136.3226 0014116  80.9224 279.3610 15.24492891149870
SITRO-AIS 8 (ANOKHIN)   
1 57193U 23091AD  26073.63454995  .00020955  00000+0  73201-3 0  9999
2 57193  97.5169 137.9784 0012357  77.5460 282.7162 15.29525716149982
SITRO-AIS 7 (FARTUSHNIY)
1 57194U 23091AE  26073.62224862  .00008714  00000+0  35916-3 0  9997
2 57194  97.5180 136.1772 0014016  81.8312 278.4514 15.24236593149869
SITRO-AIS 10 (BURDAEV)  
1 57199U 23091AK  26073.64223964  .00027019  00000+0  79589-3 0  9999
2 57199  97.5181 142.1455 0007824  60.2912 299.9109 15.34987208150245
SITRO-AIS 9 (SHCHUKIN)  
1 57201U 23091AM  26073.64167784  .00026067  00000+0  77733-3 0  9991
2 57201  97.5180 141.9412 0008070  59.8126 300.3915 15.34605177150236
SITRO-AIS 12 (SMIRENNIY)
1 57204U 23091AQ  26073.58400222  .00027796  00000+0  82224-3 0  9995
2 57204  97.5192 142.2938 0007637  55.6281 304.5683 15.34849887150240
SITRO-AIS 11 (SHEFFER)  
1 57208U 23091AU  26073.62126637  .00027874  00000+0  81551-3 0  9998
2 57208  97.5189 142.5247 0007478  55.4713 304.7235 15.35198644150263
SITRO-AIS 25            
1 59066U 24039R   26073.61372292  .00005921  00000+0  47076-3 0  9997
2 59066  95.3936 170.1298 0144824 298.9523  59.7245 14.92678466110616
SITRO-AIS 26            
1 59067U 24039S   26073.60273322  .00005391  00000+0  43070-3 0  9992
2 59067  95.3934 170.0384 0145203 299.4577  59.2226 14.92489361110604
SITRO-AIS 27            
1 59068U 24039T   26073.59878230  .00005530  00000+0  43800-3 0  9996
2 59068  95.3935 170.2651 0144329 298.2641  60.4080 14.92884929110625
SITRO-AIS 28            
1 59071U 24039U   26073.64543662  .00004901  00000+0  38827-3 0  9998
2 59071  95.3936 170.3396 0144268 297.9645  60.7041 14.92919895110631
