[{"OBJECT_NAME":"NETSAT-3","OBJECT_ID":"2020-068V","EPOCH":"2026-03-14T12:31:55.372224","MEAN_MOTION":15.39270418,"ECCENTRICITY":0.00042503,"INCLINATION":97.8676,"RA_OF_ASC_NODE":72.7365,"ARG_OF_PERICENTER":339.6728,"MEAN_ANOMALY":20.4347,"EPHEMERIS_TYPE":0,"CLASSIFICATION_TYPE":"U","NORAD_CAT_ID":46505,"ELEMENT_SET_NO":999,"REV_AT_EPOCH":30110,"BSTAR":0.00070293527,"MEAN_MOTION_DOT":0.00027365,"MEAN_MOTION_DDOT":0},{"OBJECT_NAME":"NETSAT-1","OBJECT_ID":"2020-068W","EPOCH":"2026-03-14T10:51:53.839008","MEAN_MOTION":15.32202829,"ECCENTRICITY":0.00050539,"INCLINATION":97.8746,"RA_OF_ASC_NODE":68.0482,"ARG_OF_PERICENTER":4.4278,"MEAN_ANOMALY":355.7006,"EPHEMERIS_TYPE":0,"CLASSIFICATION_TYPE":"U","NORAD_CAT_ID":46506,"ELEMENT_SET_NO":999,"REV_AT_EPOCH":30078,"BSTAR":0.00058736351,"MEAN_MOTION_DOT":0.00018207,"MEAN_MOTION_DDOT":0},{"OBJECT_NAME":"NETSAT-2","OBJECT_ID":"2020-068X","EPOCH":"2026-03-14T09:53:34.138752","MEAN_MOTION":15.41838359,"ECCENTRICITY":0.00036341,"INCLINATION":97.8653,"RA_OF_ASC_NODE":73.8825,"ARG_OF_PERICENTER":7.253,"MEAN_ANOMALY":352.8767,"EPHEMERIS_TYPE":0,"CLASSIFICATION_TYPE":"U","NORAD_CAT_ID":46507,"ELEMENT_SET_NO":999,"REV_AT_EPOCH":30111,"BSTAR":0.00066547934,"MEAN_MOTION_DOT":0.00028193,"MEAN_MOTION_DDOT":0},{"OBJECT_NAME":"GREENCUBE (IO-117)","OBJECT_ID":"2022-080E","EPOCH":"2026-03-13T03:45:32.585760","MEAN_MOTION":6.42583056,"ECCENTRICITY":0.00090336,"INCLINATION":70.1608,"RA_OF_ASC_NODE":331.6501,"ARG_OF_PERICENTER":310.6857,"MEAN_ANOMALY":49.3018,"EPHEMERIS_TYPE":0,"CLASSIFICATION_TYPE":"U","NORAD_CAT_ID":53109,"ELEMENT_SET_NO":999,"REV_AT_EPOCH":8589,"BSTAR":0,"MEAN_MOTION_DOT":-3.0e-8,"MEAN_MOTION_DDOT":0},{"OBJECT_NAME":"SITRO-AIS 5 (KATYS)","OBJECT_ID":"2023-091L","EPOCH":"2026-03-14T14:15:51.797664","MEAN_MOTION":15.27221956,"ECCENTRICITY":0.0013192,"INCLINATION":97.5176,"RA_OF_ASC_NODE":136.7042,"ARG_OF_PERICENTER":79.8268,"MEAN_ANOMALY":280.4458,"EPHEMERIS_TYPE":0,"CLASSIFICATION_TYPE":"U","NORAD_CAT_ID":57176,"ELEMENT_SET_NO":999,"REV_AT_EPOCH":14989,"BSTAR":0.00066385268,"MEAN_MOTION_DOT":0.00017703,"MEAN_MOTION_DDOT":0},{"OBJECT_NAME":"SITRO-AIS 6 (CHIRKIN)","OBJECT_ID":"2023-091AC","EPOCH":"2026-03-14T15:17:07.411776","MEAN_MOTION":15.24492891,"ECCENTRICITY":0.00141167,"INCLINATION":97.5181,"RA_OF_ASC_NODE":136.3226,"ARG_OF_PERICENTER":80.9224,"MEAN_ANOMALY":279.361,"EPHEMERIS_TYPE":0,"CLASSIFICATION_TYPE":"U","NORAD_CAT_ID":57192,"ELEMENT_SET_NO":999,"REV_AT_EPOCH":14987,"BSTAR":0.0003971059,"MEAN_MOTION_DOT":9.718e-5,"MEAN_MOTION_DDOT":0},{"OBJECT_NAME":"SITRO-AIS 8 (ANOKHIN)","OBJECT_ID":"2023-091AD","EPOCH":"2026-03-14T15:13:45.115680","MEAN_MOTION":15.29525716,"ECCENTRICITY":0.00123574,"INCLINATION":97.5169,"RA_OF_ASC_NODE":137.9784,"ARG_OF_PERICENTER":77.546,"MEAN_ANOMALY":282.7162,"EPHEMERIS_TYPE":0,"CLASSIFICATION_TYPE":"U","NORAD_CAT_ID":57193,"ELEMENT_SET_NO":999,"REV_AT_EPOCH":14998,"BSTAR":0.00073201305,"MEAN_MOTION_DOT":0.00020955,"MEAN_MOTION_DDOT":0},{"OBJECT_NAME":"SITRO-AIS 7 (FARTUSHNIY)","OBJECT_ID":"2023-091AE","EPOCH":"2026-03-14T14:56:02.280768","MEAN_MOTION":15.24236593,"ECCENTRICITY":0.00140168,"INCLINATION":97.518,"RA_OF_ASC_NODE":136.1772,"ARG_OF_PERICENTER":81.8312,"MEAN_ANOMALY":278.4514,"EPHEMERIS_TYPE":0,"CLASSIFICATION_TYPE":"U","NORAD_CAT_ID":57194,"ELEMENT_SET_NO":999,"REV_AT_EPOCH":14986,"BSTAR":0.00035915986,"MEAN_MOTION_DOT":8.714e-5,"MEAN_MOTION_DDOT":0},{"OBJECT_NAME":"SITRO-AIS 10 (BURDAEV)","OBJECT_ID":"2023-091AK","EPOCH":"2026-03-14T15:24:49.504896","MEAN_MOTION":15.34987208,"ECCENTRICITY":0.00078241,"INCLINATION":97.5181,"RA_OF_ASC_NODE":142.1455,"ARG_OF_PERICENTER":60.2912,"MEAN_ANOMALY":299.9109,"EPHEMERIS_TYPE":0,"CLASSIFICATION_TYPE":"U","NORAD_CAT_ID":57199,"ELEMENT_SET_NO":999,"REV_AT_EPOCH":15024,"BSTAR":0.00079588831,"MEAN_MOTION_DOT":0.00027019,"MEAN_MOTION_DDOT":0},{"OBJECT_NAME":"SITRO-AIS 9 (SHCHUKIN)","OBJECT_ID":"2023-091AM","EPOCH":"2026-03-14T15:24:00.965376","MEAN_MOTION":15.34605177,"ECCENTRICITY":0.00080704,"INCLINATION":97.518,"RA_OF_ASC_NODE":141.9412,"ARG_OF_PERICENTER":59.8126,"MEAN_ANOMALY":300.3915,"EPHEMERIS_TYPE":0,"CLASSIFICATION_TYPE":"U","NORAD_CAT_ID":57201,"ELEMENT_SET_NO":999,"REV_AT_EPOCH":15023,"BSTAR":0.00077732968,"MEAN_MOTION_DOT":0.00026067,"MEAN_MOTION_DDOT":0},{"OBJECT_NAME":"SITRO-AIS 12 (SMIRENNIY)","OBJECT_ID":"2023-091AQ","EPOCH":"2026-03-14T14:00:57.791808","MEAN_MOTION":15.34849887,"ECCENTRICITY":0.00076374,"INCLINATION":97.5192,"RA_OF_ASC_NODE":142.2938,"ARG_OF_PERICENTER":55.6281,"MEAN_ANOMALY":304.5683,"EPHEMERIS_TYPE":0,"CLASSIFICATION_TYPE":"U","NORAD_CAT_ID":57204,"ELEMENT_SET_NO":999,"REV_AT_EPOCH":15024,"BSTAR":0.00082224403,"MEAN_MOTION_DOT":0.00027796,"MEAN_MOTION_DDOT":0},{"OBJECT_NAME":"SITRO-AIS 11 (SHEFFER)","OBJECT_ID":"2023-091AU","EPOCH":"2026-03-14T14:54:37.414368","MEAN_MOTION":15.35198644,"ECCENTRICITY":0.00074789,"INCLINATION":97.5189,"RA_OF_ASC_NODE":142.5247,"ARG_OF_PERICENTER":55.4713,"MEAN_ANOMALY":304.7235,"EPHEMERIS_TYPE":0,"CLASSIFICATION_TYPE":"U","NORAD_CAT_ID":57208,"ELEMENT_SET_NO":999,"REV_AT_EPOCH":15026,"BSTAR":0.00081550682,"MEAN_MOTION_DOT":0.00027874,"MEAN_MOTION_DDOT":0},{"OBJECT_NAME":"SITRO-AIS 25","OBJECT_ID":"2024-039R","EPOCH":"2026-03-14T14:43:45.660288","MEAN_MOTION":14.92678466,"ECCENTRICITY":0.01448248,"INCLINATION":95.3936,"RA_OF_ASC_NODE":170.1298,"ARG_OF_PERICENTER":298.9523,"MEAN_ANOMALY":59.7245,"EPHEMERIS_TYPE":0,"CLASSIFICATION_TYPE":"U","NORAD_CAT_ID":59066,"ELEMENT_SET_NO":999,"REV_AT_EPOCH":11061,"BSTAR":0.00047076155,"MEAN_MOTION_DOT":5.921e-5,"MEAN_MOTION_DDOT":0},{"OBJECT_NAME":"SITRO-AIS 26","OBJECT_ID":"2024-039S","EPOCH":"2026-03-14T14:27:56.150208","MEAN_MOTION":14.92489361,"ECCENTRICITY":0.01452032,"INCLINATION":95.3934,"RA_OF_ASC_NODE":170.0384,"ARG_OF_PERICENTER":299.4577,"MEAN_ANOMALY":59.2226,"EPHEMERIS_TYPE":0,"CLASSIFICATION_TYPE":"U","NORAD_CAT_ID":59067,"ELEMENT_SET_NO":999,"REV_AT_EPOCH":11060,"BSTAR":0.00043069795,"MEAN_MOTION_DOT":5.391e-5,"MEAN_MOTION_DDOT":0},{"OBJECT_NAME":"SITRO-AIS 27","OBJECT_ID":"2024-039T","EPOCH":"2026-03-14T14:22:14.790720","MEAN_MOTION":14.92884929,"ECCENTRICITY":0.01443297,"INCLINATION":95.3935,"RA_OF_ASC_NODE":170.2651,"ARG_OF_PERICENTER":298.2641,"MEAN_ANOMALY":60.408,"EPHEMERIS_TYPE":0,"CLASSIFICATION_TYPE":"U","NORAD_CAT_ID":59068,"ELEMENT_SET_NO":999,"REV_AT_EPOCH":11062,"BSTAR":0.0004380008,"MEAN_MOTION_DOT":5.53e-5,"MEAN_MOTION_DDOT":0},{"OBJECT_NAME":"SITRO-AIS 28","OBJECT_ID":"2024-039U","EPOCH":"2026-03-14T15:29:25.723968","MEAN_MOTION":14.92919895,"ECCENTRICITY":0.01442689,"INCLINATION":95.3936,"RA_OF_ASC_NODE":170.3396,"ARG_OF_PERICENTER":297.9645,"MEAN_ANOMALY":60.7041,"EPHEMERIS_TYPE":0,"CLASSIFICATION_TYPE":"U","NORAD_CAT_ID":59071,"ELEMENT_SET_NO":999,"REV_AT_EPOCH":11063,"BSTAR":0.00038826809,"MEAN_MOTION_DOT":4.901e-5,"MEAN_MOTION_DDOT":0}]
